CCSDS_OMM_VERS = 2.0
CREATION_DATE  = 
ORIGINATOR     = 

OBJECT_NAME    = SL-14 R/B
OBJECT_ID      = 1986-046B
CENTER_NAME    = EARTH
REF_FRAME      = TEME
TIME_SYSTEM    = UTC
MEAN_ELEMENT_THEORY = SGP/SGP4

EPOCH          = 2025-11-28T15:16:08.914656
MEAN_MOTION    = 14.85462036
ECCENTRICITY   = .00225979
INCLINATION    = 82.4815
RA_OF_ASC_NODE = 175.6333
ARG_OF_PERICENTER = 198.6095
MEAN_ANOMALY   = 161.4298

EPHEMERIS_TYPE = 0
CLASSIFICATION_TYPE = U
NORAD_CAT_ID   = 16792
ELEMENT_SET_NO = 999
REV_AT_EPOCH   = 11140
BSTAR          = .56381537E-4
MEAN_MOTION_DOT = .512E-5
MEAN_MOTION_DDOT = 0

CCSDS_OMM_VERS = 2.0
CREATION_DATE  = 
ORIGINATOR     = 

OBJECT_NAME    = SL-14 R/B
OBJECT_ID      = 1986-055B
CENTER_NAME    = EARTH
REF_FRAME      = TEME
TIME_SYSTEM    = UTC
MEAN_ELEMENT_THEORY = SGP/SGP4

EPOCH          = 2025-11-28T10:53:23.917056
MEAN_MOTION    = 14.85508768
ECCENTRICITY   = .00178146
INCLINATION    = 82.5216
RA_OF_ASC_NODE = 221.7949
ARG_OF_PERICENTER = 310.5813
MEAN_ANOMALY   = 222.3958

EPHEMERIS_TYPE = 0
CLASSIFICATION_TYPE = U
NORAD_CAT_ID   = 16882
ELEMENT_SET_NO = 999
REV_AT_EPOCH   = 10433
BSTAR          = .63333514E-4
MEAN_MOTION_DOT = .572E-5
MEAN_MOTION_DDOT = 0

CCSDS_OMM_VERS = 2.0
CREATION_DATE  = 
ORIGINATOR     = 

OBJECT_NAME    = AJISAI (EGS)
OBJECT_ID      = 1986-061A
CENTER_NAME    = EARTH
REF_FRAME      = TEME
TIME_SYSTEM    = UTC
MEAN_ELEMENT_THEORY = SGP/SGP4

EPOCH          = 2025-11-28T14:49:28.614720
MEAN_MOTION    = 12.44514119
ECCENTRICITY   = .00112499
INCLINATION    = 50.0111
RA_OF_ASC_NODE = 44.1410
ARG_OF_PERICENTER = 30.4331
MEAN_ANOMALY   = 77.8564

EPHEMERIS_TYPE = 0
CLASSIFICATION_TYPE = U
NORAD_CAT_ID   = 16908
ELEMENT_SET_NO = 999
REV_AT_EPOCH   = 45541
BSTAR          = -.3478853E-5
MEAN_MOTION_DOT = -.98E-6
MEAN_MOTION_DDOT = 0

CCSDS_OMM_VERS = 2.0
CREATION_DATE  = 
ORIGINATOR     = 

OBJECT_NAME    = COSMOS 1812
OBJECT_ID      = 1987-003A
CENTER_NAME    = EARTH
REF_FRAME      = TEME
TIME_SYSTEM    = UTC
MEAN_ELEMENT_THEORY = SGP/SGP4

EPOCH          = 2025-11-28T10:10:24.661056
MEAN_MOTION    = 15.72220050
ECCENTRICITY   = .00067508
INCLINATION    = 82.4877
RA_OF_ASC_NODE = 307.4747
ARG_OF_PERICENTER = 105.7695
MEAN_ANOMALY   = 254.4313

EPHEMERIS_TYPE = 0
CLASSIFICATION_TYPE = U
NORAD_CAT_ID   = 17295
ELEMENT_SET_NO = 999
REV_AT_EPOCH   = 12840
BSTAR          = .61215637E-3
MEAN_MOTION_DOT = .81308E-3
MEAN_MOTION_DDOT = 0

CCSDS_OMM_VERS = 2.0
CREATION_DATE  = 
ORIGINATOR     = 

OBJECT_NAME    = SL-14 R/B
OBJECT_ID      = 1987-024B
CENTER_NAME    = EARTH
REF_FRAME      = TEME
TIME_SYSTEM    = UTC
MEAN_ELEMENT_THEORY = SGP/SGP4

EPOCH          = 2025-11-28T15:20:03.488928
MEAN_MOTION    = 14.86002603
ECCENTRICITY   = .00170062
INCLINATION    = 82.5284
RA_OF_ASC_NODE = 187.7002
ARG_OF_PERICENTER = 232.8044
MEAN_ANOMALY   = 127.1621

EPHEMERIS_TYPE = 0
CLASSIFICATION_TYPE = U
NORAD_CAT_ID   = 17567
ELEMENT_SET_NO = 999
REV_AT_EPOCH   = 7312
BSTAR          = .52472942E-4
MEAN_MOTION_DOT = .484E-5
MEAN_MOTION_DDOT = 0

CCSDS_OMM_VERS = 2.0
CREATION_DATE  = 
ORIGINATOR     = 

OBJECT_NAME    = COSMOS 1833
OBJECT_ID      = 1987-027A
CENTER_NAME    = EARTH
REF_FRAME      = TEME
TIME_SYSTEM    = UTC
MEAN_ELEMENT_THEORY = SGP/SGP4

EPOCH          = 2025-11-28T15:07:40.363392
MEAN_MOTION    = 14.13017952
ECCENTRICITY   = .00219365
INCLINATION    = 70.9124
RA_OF_ASC_NODE = 178.4381
ARG_OF_PERICENTER = 351.6058
MEAN_ANOMALY   = 8.4692

EPHEMERIS_TYPE = 0
CLASSIFICATION_TYPE = U
NORAD_CAT_ID   = 17589
ELEMENT_SET_NO = 999
REV_AT_EPOCH   = 99603
BSTAR          = .8417056E-5
MEAN_MOTION_DOT = -.32E-6
MEAN_MOTION_DDOT = 0

CCSDS_OMM_VERS = 2.0
CREATION_DATE  = 
ORIGINATOR     = 

OBJECT_NAME    = SL-16 R/B
OBJECT_ID      = 1987-027B
CENTER_NAME    = EARTH
REF_FRAME      = TEME
TIME_SYSTEM    = UTC
MEAN_ELEMENT_THEORY = SGP/SGP4

EPOCH          = 2025-11-28T14:45:22.094784
MEAN_MOTION    = 14.17150260
ECCENTRICITY   = .000735
INCLINATION    = 71.0010
RA_OF_ASC_NODE = 129.4812
ARG_OF_PERICENTER = 274.3435
MEAN_ANOMALY   = 85.6849

EPHEMERIS_TYPE = 0
CLASSIFICATION_TYPE = U
NORAD_CAT_ID   = 17590
ELEMENT_SET_NO = 999
REV_AT_EPOCH   = 102
BSTAR          = .15233501E-3
MEAN_MOTION_DOT = .259E-5
MEAN_MOTION_DDOT = 0

CCSDS_OMM_VERS = 2.0
CREATION_DATE  = 
ORIGINATOR     = 

OBJECT_NAME    = SL-14 R/B
OBJECT_ID      = 1987-038B
CENTER_NAME    = EARTH
REF_FRAME      = TEME
TIME_SYSTEM    = UTC
MEAN_ELEMENT_THEORY = SGP/SGP4

EPOCH          = 2025-11-28T13:58:06.045888
MEAN_MOTION    = 14.85240805
ECCENTRICITY   = .00204157
INCLINATION    = 82.5030
RA_OF_ASC_NODE = 32.0347
ARG_OF_PERICENTER = 135.7960
MEAN_ANOMALY   = 224.4892

EPHEMERIS_TYPE = 0
CLASSIFICATION_TYPE = U
NORAD_CAT_ID   = 17912
ELEMENT_SET_NO = 999
REV_AT_EPOCH   = 6422
BSTAR          = .57568153E-4
MEAN_MOTION_DOT = .52E-5
MEAN_MOTION_DDOT = 0

CCSDS_OMM_VERS = 2.0
CREATION_DATE  = 
ORIGINATOR     = 

OBJECT_NAME    = COSMOS 1844
OBJECT_ID      = 1987-041A
CENTER_NAME    = EARTH
REF_FRAME      = TEME
TIME_SYSTEM    = UTC
MEAN_ELEMENT_THEORY = SGP/SGP4

EPOCH          = 2025-11-28T11:44:53.759904
MEAN_MOTION    = 14.14528282
ECCENTRICITY   = .00306713
INCLINATION    = 70.8995
RA_OF_ASC_NODE = 247.6259
ARG_OF_PERICENTER = 179.4319
MEAN_ANOMALY   = 180.6843

EPHEMERIS_TYPE = 0
CLASSIFICATION_TYPE = U
NORAD_CAT_ID   = 17973
ELEMENT_SET_NO = 999
REV_AT_EPOCH   = 98927
BSTAR          = -.27551505E-4
MEAN_MOTION_DOT = -.102E-5
MEAN_MOTION_DDOT = 0

CCSDS_OMM_VERS = 2.0
CREATION_DATE  = 
ORIGINATOR     = 

OBJECT_NAME    = SL-14 R/B
OBJECT_ID      = 1987-055B
CENTER_NAME    = EARTH
REF_FRAME      = TEME
TIME_SYSTEM    = UTC
MEAN_ELEMENT_THEORY = SGP/SGP4

EPOCH          = 2025-11-28T13:50:00.042432
MEAN_MOTION    = 14.85497480
ECCENTRICITY   = .00204049
INCLINATION    = 82.4996
RA_OF_ASC_NODE = 84.3351
ARG_OF_PERICENTER = 352.1136
MEAN_ANOMALY   = 7.9756

EPHEMERIS_TYPE = 0
CLASSIFICATION_TYPE = U
NORAD_CAT_ID   = 18153
ELEMENT_SET_NO = 999
REV_AT_EPOCH   = 5492
BSTAR          = .64189251E-4
MEAN_MOTION_DOT = .58E-5
MEAN_MOTION_DDOT = 0

CCSDS_OMM_VERS = 2.0
CREATION_DATE  = 
ORIGINATOR     = 

OBJECT_NAME    = COSMOS 1867
OBJECT_ID      = 1987-060A
CENTER_NAME    = EARTH
REF_FRAME      = TEME
TIME_SYSTEM    = UTC
MEAN_ELEMENT_THEORY = SGP/SGP4

EPOCH          = 2025-11-28T10:05:55.877568
MEAN_MOTION    = 14.31482795
ECCENTRICITY   = .00136048
INCLINATION    = 65.0101
RA_OF_ASC_NODE = 230.3006
ARG_OF_PERICENTER = 269.6698
MEAN_ANOMALY   = 90.2827

EPHEMERIS_TYPE = 0
CLASSIFICATION_TYPE = U
NORAD_CAT_ID   = 18187
ELEMENT_SET_NO = 999
REV_AT_EPOCH   = 544
BSTAR          = .35074959E-4
MEAN_MOTION_DOT = -.7E-7
MEAN_MOTION_DDOT = 0

CCSDS_OMM_VERS = 2.0
CREATION_DATE  = 
ORIGINATOR     = 

OBJECT_NAME    = COSMOS 1892
OBJECT_ID      = 1987-088A
CENTER_NAME    = EARTH
REF_FRAME      = TEME
TIME_SYSTEM    = UTC
MEAN_ELEMENT_THEORY = SGP/SGP4

EPOCH          = 2025-11-28T06:22:07.247424
MEAN_MOTION    = 16.19562950
ECCENTRICITY   = .0005541
INCLINATION    = 82.4604
RA_OF_ASC_NODE = 59.9213
ARG_OF_PERICENTER = 268.2867
MEAN_ANOMALY   = 91.7787

EPHEMERIS_TYPE = 0
CLASSIFICATION_TYPE = U
NORAD_CAT_ID   = 18421
ELEMENT_SET_NO = 999
REV_AT_EPOCH   = 8900
BSTAR          = .69250119E-3
MEAN_MOTION_DOT = .1259464E-1
MEAN_MOTION_DDOT = -.1199875E-5

